KUIPER-00035            
1 63748U 25088AA  25297.56712369  .00003417  00000+0  47679-3 0  9995
2 63748  51.9016 356.0408 0004971 340.6315  19.4458 14.79952703 27356
KUIPER-00037            
1 63749U 25088AB  25297.43379604 -.00000328  00000+0 -13782-4 0  9992
2 63749  51.9012 355.5860 0007451 292.2772  67.7400 14.79947577 28137
KUIPER-00038            
1 63750U 25088AC  25297.72054174  .00078898  00000+0  10793-1 0  9999
2 63750  51.9026 339.3302 0006197 357.1734   2.9191 14.77770690 27382
KUIPER-00039            
1 64500U 25134A   25297.76009263 -.00012728  00000+0 -16435-2 0  9990
2 64500  51.8989 114.1543 0011028 217.4817 142.5377 14.79884359 19948
KUIPER-00040            
1 64501U 25134B   25297.81525366 -.00000263  00000+0 -48577-5 0  9990
2 64501  51.8983 125.0755 0018361 178.4978 181.6043 14.79941402 19790
KUIPER-00041            
1 64502U 25134C   25297.81417208  .00001555  00000+0  23295-3 0  9997
2 64502  51.8975 126.4375 0015470 166.0117 194.1277 14.79949890 19776
KUIPER-00042            
1 64503U 25134D   25297.81796324  .00002501  00000+0  35684-3 0  9994
2 64503  51.8982 122.4193 0013320 182.1609 177.9297 14.79942537 19835
KUIPER-00043            
1 64504U 25134E   25297.75857474  .00004769  00000+0  65368-3 0  9992
2 64504  51.9003 115.1182 0004185 164.7390 195.3700 14.79962265 19934
